NORAD_CAT_ID,OBJECT_NAME,OBJECT_TYPE,EPOCH,MEAN_MOTION,ECCENTRICITY,INCLINATION,RA_OF_ASC_NODE,ARG_OF_PERICENTER,MEAN_ANOMALY,BSTAR,MEAN_MOTION_DOT,MEAN_MOTION_DDOT,TLE_LINE0,TLE_LINE1,TLE_LINE2,SEMIMAJOR_AXIS,PERIOD,APOGEE,PERIGEE,DECAYED
52383.0,STARLINK-3811,PAYLOAD,2024-03-22 12:08:23,15.08855306,0.0001616,53.216,158.7128,105.6974,254.4197,0.00036202,5.481e-05,0.0,0 STARLINK-3811,1 52383U 22045BE  24082.50582285  .00005481  00000-0  36202-3 0  9999,2 52383  53.2160 158.7128 0001616 105.6974 254.4197 15.08855306107795,6917.834,95.437,540.817,538.581,0.0
52383.0,STARLINK-3811,PAYLOAD,2024-03-23 05:37:38,15.08827279,0.0001569,53.2157,155.4416,109.3517,250.7645,-0.00026887,-4.563e-05,0.0,0 STARLINK-3811,1 52383U 22045BE  24083.23447662 -.00004563  00000-0 -26887-3 0  9999,2 52383  53.2157 155.4416 0001569 109.3517 250.7645 15.08827279107904,6917.919,95.438,540.87,538.699,0.0
52383.0,STARLINK-3811,PAYLOAD,2024-03-23 11:59:11,15.08829052,0.0001513,53.2157,154.2522,103.5099,256.6062,-0.00013078,-2.368e-05,0.0,0 STARLINK-3811,1 52383U 22045BE  24083.49944130 -.00002368  00000-0 -13078-3 0  9998,2 52383  53.2157 154.2522 0001513 103.5099 256.6062 15.08829052107942,6917.914,95.438,540.826,538.732,0.0
52383.0,STARLINK-3811,PAYLOAD,2024-03-24 03:53:03,15.08844796,8.27e-05,53.2154,151.2756,100.2789,259.8297,0.00022665,3.322e-05,0.0,0 STARLINK-3811,1 52383U 22045BE  24084.16184086  .00003322  00000-0  22665-3 0  9990,2 52383  53.2154 151.2756 0000827 100.2789 259.8297 15.08844796108041,6917.866,95.437,540.303,539.159,0.0
52383.0,STARLINK-3811,PAYLOAD,2024-03-24 11:49:57,15.08871355,0.0001606,53.2161,149.7902,97.7339,262.3835,0.00074559,0.00011608,0.0,0 STARLINK-3811,1 52383U 22045BE  24084.49302321  .00011608  00000-0  74559-3 0  9995,2 52383  53.2161 149.7902 0001606  97.7339 262.3835 15.08871355108094,6917.785,95.436,540.761,538.539,0.0
52383.0,STARLINK-3811,PAYLOAD,2024-03-24 21:22:16,15.08868069,0.0001881,53.218,148.0034,67.7826,292.3366,0.00068374,0.00010619,0.0,0 STARLINK-3811,1 52383U 22045BE  24084.89046394  .00010619  00000-0  68374-3 0  9993,2 52383  53.2180 148.0034 0001881  67.7826 292.3366 15.08868069108153,6917.795,95.436,540.961,538.358,0.0
52383.0,STARLINK-3811,PAYLOAD,2024-03-25 13:16:08,15.08850521,0.00015,53.2148,145.0342,74.8273,285.2885,0.00089504,0.00013989,0.0,0 STARLINK-3811,1 52383U 22045BE  24085.55287133  .00013989  00000-0  89504-3 0  9996,2 52383  53.2148 145.0342 0001500  74.8273 285.2885 15.08850521108251,6917.848,95.437,540.751,538.676,0.0
52383.0,STARLINK-3811,PAYLOAD,2024-03-25 21:13:04,15.08831421,0.0001499,53.2147,143.5465,77.4703,282.6456,0.0016239,0.00025645,0.0,0 STARLINK-3811,1 52383U 22045BE  24085.88408483  .00025645  00000-0  16239-2 0  9991,2 52383  53.2147 143.5465 0001499  77.4703 282.6456 15.08831421108302,6917.907,95.438,540.809,538.735,0.0
52383.0,STARLINK-3811,PAYLOAD,2024-03-26 09:56:11,15.08815628,0.0001861,53.2148,141.1654,92.0461,268.0744,0.0014381,0.00022658,0.0,0 STARLINK-3811,1 52383U 22045BE  24086.41401851  .00022658  00000-0  14381-2 0  9990,2 52383  53.2148 141.1654 0001861  92.0461 268.0744 15.08815628108381,6917.955,95.439,541.107,538.532,0.0
52383.0,STARLINK-3811,PAYLOAD,2024-03-27 09:46:57,15.088742,0.0001579,53.2146,136.7053,81.5063,278.6108,0.0020345,0.0003227,0.0,0 STARLINK-3811,1 52383U 22045BE  24087.40761534  .00032270  00000-0  20345-2 0  9995,2 52383  53.2146 136.7053 0001579  81.5063 278.6108 15.08874200108538,6917.776,95.435,540.733,538.549,0.0
52383.0,STARLINK-3811,PAYLOAD,2024-03-28 03:16:11,15.08877122,0.00017,53.2155,133.4327,78.4991,281.6192,0.001498,0.00023657,0.0,0 STARLINK-3811,1 52383U 22045BE  24088.13624693  .00023657  00000-0  14980-2 0  9997,2 52383  53.2155 133.4327 0001700  78.4991 281.6192 15.08877122108642,6917.767,95.435,540.808,538.456,0.0
52383.0,STARLINK-3811,PAYLOAD,2024-03-28 09:37:43,15.08865621,0.0001517,53.215,132.2447,84.4979,275.6187,0.0015187,0.00023982,0.0,0 STARLINK-3811,1 52383U 22045BE  24088.40120297  .00023982  00000-0  15187-2 0  9999,2 52383  53.2150 132.2447 0001517  84.4979 275.6187 15.08865621108688,6917.802,95.436,540.717,538.618,0.0
52383.0,STARLINK-3811,PAYLOAD,2024-03-29 03:06:58,15.08860268,0.0001712,53.2154,128.9728,82.6308,277.4879,0.0013505,0.00021283,0.0,0 STARLINK-3811,1 52383U 22045BE  24089.12984239  .00021283  00000-0  13505-2 0  9997,2 52383  53.2154 128.9728 0001712  82.6308 277.4879 15.08860268108791,6917.818,95.436,540.868,538.499,0.0
52383.0,STARLINK-3811,PAYLOAD,2024-03-29 09:28:30,15.08848817,0.0001602,53.2166,127.7862,95.6623,264.4552,0.00020708,3.01e-05,0.0,0 STARLINK-3811,1 52383U 22045BE  24089.39480006  .00003010  00000-0  20708-3 0  9991,2 52383  53.2166 127.7862 0001602  95.6623 264.4552 15.08848817108837,6917.853,95.437,540.827,538.61,0.0
52383.0,STARLINK-3811,PAYLOAD,2024-03-29 19:00:49,15.08847073,0.0001611,53.2151,126.0002,89.4237,270.694,0.00011927,1.611e-05,0.0,0 STARLINK-3811,1 52383U 22045BE  24089.79223982  .00001611  00000-0  11927-3 0  9991,2 52383  53.2151 126.0002 0001611  89.4237 270.6940 15.08847073108890,6917.859,95.437,540.838,538.609,0.0
52383.0,STARLINK-3811,PAYLOAD,2024-03-30 02:57:45,15.08841049,0.0001744,53.2163,124.5166,99.8798,260.2391,-2.2124e-05,-6.4e-06,0.0,0 STARLINK-3811,1 52383U 22045BE  24090.12344230 -.00000640  00000-0 -22124-4 0  9995,2 52383  53.2163 124.5166 0001744  99.8798 260.2391 15.08841049108949,6917.877,95.437,540.949,538.536,0.0
52383.0,STARLINK-3811,PAYLOAD,2024-03-30 09:19:18,15.08840707,0.0001705,53.2162,123.3269,98.8133,261.3052,-3.1545e-05,-7.9e-06,0.0,0 STARLINK-3811,1 52383U 22045BE  24090.38840312 -.00000790  00000-0 -31545-4 0  9998,2 52383  53.2162 123.3269 0001705  98.8133 261.3052 15.08840707108988,6917.878,95.438,540.923,538.564,0.0
52383.0,STARLINK-3811,PAYLOAD,2024-03-30 18:51:36,15.08837991,0.0001702,53.2162,121.5427,98.7092,261.4093,-8.2997e-05,-1.609e-05,0.0,0 STARLINK-3811,1 52383U 22045BE  24090.78584406 -.00001609  00000-0 -82997-4 0  9998,2 52383  53.2162 121.5427 0001702  98.7092 261.4093 15.08837991109049,6917.887,95.438,540.929,538.574,0.0
52383.0,STARLINK-3811,PAYLOAD,2024-03-31 12:20:51,15.08843957,0.0001559,53.2162,118.2694,94.651,265.4661,8.7213e-05,1.1e-05,0.0,0 STARLINK-3811,1 52383U 22045BE  24091.51448233  .00001100  00000-0  87213-4 0  9997,2 52383  53.2162 118.2694 0001559  94.6510 265.4661 15.08843957109154,6917.868,95.437,540.812,538.655,0.0
52383.0,STARLINK-3811,PAYLOAD,2024-04-01 10:36:15,15.08841055,0.0001559,53.2157,114.1054,91.2095,268.9076,0.00010947,1.455e-05,0.0,0 STARLINK-3811,1 52383U 22045BE  24092.44184560  .00001455  00000-0  10947-3 0  9992,2 52383  53.2157 114.1054 0001559  91.2095 268.9076 15.08841055109294,6917.877,95.437,540.821,538.664,0.0
52383.0,STARLINK-3811,PAYLOAD,2024-04-02 00:54:44,15.08830454,0.0001667,53.2165,111.4276,92.902,267.2163,0.0002218,3.243e-05,0.0,0 STARLINK-3811,1 52383U 22045BE  24093.03801018  .00003243  00000-0  22180-3 0  9991,2 52383  53.2165 111.4276 0001667  92.9020 267.2163 15.08830454109385,6917.91,95.438,540.928,538.621,0.0
52383.0,STARLINK-3811,PAYLOAD,2024-04-02 08:51:39,15.0884566,0.0001441,53.2158,109.9408,93.1295,266.9862,9.064e-05,1.155e-05,0.0,0 STARLINK-3811,1 52383U 22045BE  24093.36920259  .00001155  00000-0  90640-4 0  9993,2 52383  53.2158 109.9408 0001441  93.1295 266.9862 15.08845660109436,6917.863,95.437,540.725,538.731,0.0
52383.0,STARLINK-3811,PAYLOAD,2024-04-02 18:23:58,15.08837457,0.0001395,53.2155,108.1567,96.4861,263.629,-4.0867e-06,-3.53e-06,0.0,0 STARLINK-3811,1 52383U 22045BE  24093.76664949 -.00000353  00000-0 -40867-5 0  9996,2 52383  53.2155 108.1567 0001395  96.4861 263.6290 15.08837457109493,6917.888,95.438,540.718,538.788,0.0
52383.0,STARLINK-3811,PAYLOAD,2024-04-03 10:17:50,15.08835403,0.0001561,53.217,105.1827,91.4645,268.6526,-3.084e-06,-3.37e-06,0.0,0 STARLINK-3811,1 52383U 22045BE  24094.42905359 -.00000337  00000-0 -30840-5 0  9995,2 52383  53.2170 105.1827 0001561  91.4645 268.6526 15.08835403109593,6917.894,95.438,540.839,538.68,0.0
52383.0,STARLINK-3811,PAYLOAD,2024-04-03 18:14:45,15.08837004,0.0001554,53.2173,103.6958,91.849,268.268,2.1741e-05,5.8e-07,0.0,0 STARLINK-3811,1 52383U 22045BE  24094.76025228  .00000058  00000-0  21741-4 0  9997,2 52383  53.2173 103.6958 0001554  91.8490 268.2680 15.08837004109640,6917.89,95.438,540.83,538.68,0.0
52383.0,STARLINK-3811,PAYLOAD,2024-04-04 05:22:27,15.08842731,0.0001534,53.217,101.614,91.3979,268.7189,6.1207e-05,6.86e-06,0.0,0 STARLINK-3811,1 52383U 22045BE  24095.22392744  .00000686  00000-0  61207-4 0  9997,2 52383  53.2170 101.6140 0001534  91.3979 268.7189 15.08842731109713,6917.872,95.437,540.798,538.676,0.0
52383.0,STARLINK-3811,PAYLOAD,2024-04-04 10:08:34,15.08864162,0.0001353,53.2161,100.7221,90.2601,269.8546,0.00023872,3.516e-05,0.0,0 STARLINK-3811,1 52383U 22045BE  24095.42262680  .00003516  00000-0  23872-3 0  9994,2 52383  53.2161 100.7221 0001353  90.2601 269.8546 15.08864162109746,6917.807,95.436,540.608,538.736,0.0
52383.0,STARLINK-3811,PAYLOAD,2024-04-05 03:37:50,15.08841122,0.0001363,53.2176,97.452,97.6049,262.5098,0.00013991,1.94e-05,0.0,0 STARLINK-3811,1 52383U 22045BE  24096.15128295  .00001940  00000-0  13991-3 0  9998,2 52383  53.2176  97.4520 0001363  97.6049 262.5098 15.08841122109859,6917.877,95.437,540.685,538.799,0.0
52383.0,STARLINK-3811,PAYLOAD,2024-04-05 09:59:23,15.08846658,0.0001404,53.2175,96.2607,87.8172,272.2981,0.00010647,1.407e-05,0.0,0 STARLINK-3811,1 52383U 22045BE  24096.41624041  .00001407  00000-0  10647-3 0  9990,2 52383  53.2175  96.2607 0001404  87.8172 272.2981 15.08846658109897,6917.86,95.437,540.696,538.754,0.0
52383.0,STARLINK-3811,PAYLOAD,2024-04-06 03:28:38,15.08837288,0.0001556,53.2176,92.9874,107.7701,252.3461,-2.4796e-05,-6.83e-06,0.0,0 STARLINK-3811,1 52383U 22045BE  24097.14488922 -.00000683  00000-0 -24796-4 0  9995,2 52383  53.2176  92.9874 0001556 107.7701 252.3461 15.08837288110001,6917.889,95.438,540.83,538.677,0.0
